{"type": "FeatureCollection", "features": [ {"type": "Feature", "properties": {"norad_id": 67050, "name": "STARLINK-36078", "group": "last-30-days", "lat": 29.75080811671839, "lon": 135.3088592440776, "alt_km": 368.79183116337845, "timestamp": "2025-12-26T14:28:46.398842+00:00", "meta": {"OBJECT_NAME": "STARLINK-36078", "OBJECT_ID": "2025-294W", "EPOCH": "2025-12-26T06:00:02.999808", "MEAN_MOTION": 15.66656801, "ECCENTRICITY": 0.00012756, "INCLINATION": 43.0002, "RA_OF_ASC_NODE": 99.5902, "ARG_OF_PERICENTER": 268.3883, "MEAN_ANOMALY": 304.4148, "EPHEMERIS_TYPE": 0, "CLASSIFICATION_TYPE": "U", "NORAD_CAT_ID": 67050, "ELEMENT_SET_NO": 999, "REV_AT_EPOCH": 239, "BSTAR": -0.020199551, "MEAN_MOTION_DOT": -0.01929189, "MEAN_MOTION_DDOT": 0}, "tle": {"line1": "1 67050U 25294W   25360.25003472 -.01929189  00000+0 -20200-1 0  9994", "line2": "2 67050  43.0002  99.5902 0001275 268.3883 304.4148 15.66656801  2398"}}, "geometry": {"type": "Point", "coordinates": [135.3088592440776, 29.75080811671839]}}, {"type": "Feature", "properties": {"norad_id": 67051, "name": "STARLINK-35706", "group": "last-30-days", "lat": 30.88906565912221, "lon": 137.4100879787352, "alt_km": 368.711333189206, "timestamp": "2025-12-26T14:28:46.398854+00:00", "meta": {"OBJECT_NAME": "STARLINK-35706", "OBJECT_ID": "2025-294X", "EPOCH": "2025-12-26T06:00:02.999808", "MEAN_MOTION": 15.66641523, "ECCENTRICITY": 0.00012664, "INCLINATION": 43, "RA_OF_ASC_NODE": 99.5848, "ARG_OF_PERICENTER": 266.2568, "MEAN_ANOMALY": 308.7112, "EPHEMERIS_TYPE": 0, "CLASSIFICATION_TYPE": "U", "NORAD_CAT_ID": 67051, "ELEMENT_SET_NO": 999, "REV_AT_EPOCH": 247, "BSTAR": -0.020244788, "MEAN_MOTION_DOT": -0.01931933, "MEAN_MOTION_DDOT": 0}, "tle": {"line1": "1 67051U 25294X   25360.25003472 -.01931933  00000+0 -20245-1 0  9994", "line2": "2 67051  43.0000  99.5848 0001266 266.2568 308.7112 15.66641523  2475"}}, "geometry": {"type": "Point", "coordinates": [137.4100879787352, 30.88906565912221]}}, {"type": "Feature", "properties": {"norad_id": 67052, "name": "STARLINK-35720", "group": "last-30-days", "lat": 31.89803568123859, "lon": 139.37173673501593, "alt_km": 368.54738831624945, "timestamp": "2025-12-26T14:28:46.398866+00:00", "meta": {"OBJECT_NAME": "STARLINK-35720", "OBJECT_ID": "2025-294Y", "EPOCH": "2025-12-26T06:00:02.999808", "MEAN_MOTION": 15.66638055, "ECCENTRICITY": 0.00012658, "INCLINATION": 43.0002, "RA_OF_ASC_NODE": 99.5799, "ARG_OF_PERICENTER": 268.362, "MEAN_ANOMALY": 308.566, "EPHEMERIS_TYPE": 0, "CLASSIFICATION_TYPE": "U", "NORAD_CAT_ID": 67052, "ELEMENT_SET_NO": 999, "REV_AT_EPOCH": 246, "BSTAR": -0.020234987, "MEAN_MOTION_DOT": -0.01930863, "MEAN_MOTION_DDOT": 0}, "tle": {"line1": "1 67052U 25294Y   25360.25003472 -.01930863  00000+0 -20235-1 0  9995", "line2": "2 67052  43.0002  99.5799 0001265 268.3620 308.5660 15.66638055  2465"}}, "geometry": {"type": "Point", "coordinates": [139.37173673501593, 31.89803568123859]}}, {"type": "Feature", "properties": {"norad_id": 67053, "name": "STARLINK-35739", "group": "last-30-days", "lat": 32.93180860600506, "lon": 141.4943243376448, "alt_km": 368.4472831916737, "timestamp": "2025-12-26T14:28:46.398878+00:00", "meta": {"OBJECT_NAME": "STARLINK-35739", "OBJECT_ID": "2025-294Z", "EPOCH": "2025-12-26T06:00:02.999808", "MEAN_MOTION": 15.66622246, "ECCENTRICITY": 0.00012851, "INCLINATION": 43.0003, "RA_OF_ASC_NODE": 99.5749, "ARG_OF_PERICENTER": 268.8398, "MEAN_ANOMALY": 310.1767, "EPHEMERIS_TYPE": 0, "CLASSIFICATION_TYPE": "U", "NORAD_CAT_ID": 67053, "ELEMENT_SET_NO": 999, "REV_AT_EPOCH": 212, "BSTAR": -0.020211336, "MEAN_MOTION_DOT": -0.0192778, "MEAN_MOTION_DDOT": 0}, "tle": {"line1": "1 67053U 25294Z   25360.25003472 -.01927780  00000+0 -20211-1 0  9994", "line2": "2 67053  43.0003  99.5749 0001285 268.8398 310.1767 15.66622246  2126"}}, "geometry": {"type": "Point", "coordinates": [141.4943243376448, 32.93180860600506]}}, {"type": "Feature", "properties": {"norad_id": 67054, "name": "STARLINK-35754", "group": "last-30-days", "lat": 33.972886471053336, "lon": 143.76611908821042, "alt_km": 368.3877567836016, "timestamp": "2025-12-26T14:28:46.398888+00:00", "meta": {"OBJECT_NAME": "STARLINK-35754", "OBJECT_ID": "2025-294AA", "EPOCH": "2025-12-26T06:00:02.999808", "MEAN_MOTION": 15.66606218, "ECCENTRICITY": 0.00013191, "INCLINATION": 43.0001, "RA_OF_ASC_NODE": 99.5694, "ARG_OF_PERICENTER": 268.535, "MEAN_ANOMALY": 312.6689, "EPHEMERIS_TYPE": 0, "CLASSIFICATION_TYPE": "U", "NORAD_CAT_ID": 67054, "ELEMENT_SET_NO": 999, "REV_AT_EPOCH": 228, "BSTAR": -0.020283272, "MEAN_MOTION_DOT": -0.01932747, "MEAN_MOTION_DDOT": 0}, "tle": {"line1": "1 67054U 25294AA  25360.25003472 -.01932747  00000+0 -20283-1 0  9993", "line2": "2 67054  43.0001  99.5694 0001319 268.5350 312.6689 15.66606218  2285"}}, "geometry": {"type": "Point", "coordinates": [143.76611908821042, 33.972886471053336]}}, {"type": "Feature", "properties": {"norad_id": 67055, "name": "STARLINK-35790", "group": "last-30-days", "lat": 34.95180118973454, "lon": 146.04609826644165, "alt_km": 368.3251476072064, "timestamp": "2025-12-26T14:28:46.398917+00:00", "meta": {"OBJECT_NAME": "STARLINK-35790", "OBJECT_ID": "2025-294AB", "EPOCH": "2025-12-26T06:00:02.999808", "MEAN_MOTION": 15.66588465, "ECCENTRICITY": 0.00013259, "INCLINATION": 42.9999, "RA_OF_ASC_NODE": 99.5632, "ARG_OF_PERICENTER": 266.8561, "MEAN_ANOMALY": 316.4914, "EPHEMERIS_TYPE": 0, "CLASSIFICATION_TYPE": "U", "NORAD_CAT_ID": 67055, "ELEMENT_SET_NO": 999, "REV_AT_EPOCH": 247, "BSTAR": -0.020268902, "MEAN_MOTION_DOT": -0.01930303, "MEAN_MOTION_DDOT": 0}, "tle": {"line1": "1 67055U 25294AB  25360.25003472 -.01930303  00000+0 -20269-1 0  9994", "line2": "2 67055  42.9999  99.5632 0001325 266.8561 316.4914 15.66588465  2471"}}, "geometry": {"type": "Point", "coordinates": [146.04609826644165, 34.95180118973454]}}, {"type": "Feature", "properties": {"norad_id": 67056, "name": "STARLINK-36143", "group": "last-30-days", "lat": 37.45902198414794, "lon": 152.74294457137142, "alt_km": 368.0048618062401, "timestamp": "2025-12-26T14:28:46.398928+00:00", "meta": {"OBJECT_NAME": "STARLINK-36143", "OBJECT_ID": "2025-294AC", "EPOCH": "2025-12-26T06:00:02.999808", "MEAN_MOTION": 15.66568527, "ECCENTRICITY": 0.00012886, "INCLINATION": 42.9999, "RA_OF_ASC_NODE": 99.5481, "ARG_OF_PERICENTER": 267.241, "MEAN_ANOMALY": 322.0904, "EPHEMERIS_TYPE": 0, "CLASSIFICATION_TYPE": "U", "NORAD_CAT_ID": 67056, "ELEMENT_SET_NO": 999, "REV_AT_EPOCH": 247, "BSTAR": -0.020246777, "MEAN_MOTION_DOT": -0.01927025, "MEAN_MOTION_DDOT": 0}, "tle": {"line1": "1 67056U 25294AC  25360.25003472 -.01927025  00000+0 -20247-1 0  9998", "line2": "2 67056  42.9999  99.5481 0001288 267.2410 322.0904 15.66568527  2479"}}, "geometry": {"type": "Point", "coordinates": [152.74294457137142, 37.45902198414794]}}, {"type": "Feature", "properties": {"norad_id": 67057, "name": "STARLINK-36141", "group": "last-30-days", "lat": 36.65024317952614, "lon": 150.42106604767622, "alt_km": 368.0860944139049, "timestamp": "2025-12-26T14:28:46.398940+00:00", "meta": {"OBJECT_NAME": "STARLINK-36141", "OBJECT_ID": "2025-294AD", "EPOCH": "2025-12-26T06:00:02.999808", "MEAN_MOTION": 15.6657808, "ECCENTRICITY": 0.0001284, "INCLINATION": 43, "RA_OF_ASC_NODE": 99.5534, "ARG_OF_PERICENTER": 267.2226, "MEAN_ANOMALY": 320.0734, "EPHEMERIS_TYPE": 0, "CLASSIFICATION_TYPE": "U", "NORAD_CAT_ID": 67057, "ELEMENT_SET_NO": 999, "REV_AT_EPOCH": 239, "BSTAR": -0.020246235, "MEAN_MOTION_DOT": -0.01927641, "MEAN_MOTION_DDOT": 0}, "tle": {"line1": "1 67057U 25294AD  25360.25003472 -.01927641  00000+0 -20246-1 0  9992", "line2": "2 67057  43.0000  99.5534 0001284 267.2226 320.0734 15.66578080  2390"}}, "geometry": {"type": "Point", "coordinates": [150.42106604767622, 36.65024317952614]}}, {"type": "Feature", "properties": {"norad_id": 67058, "name": "STARLINK-35767", "group": "last-30-days", "lat": 35.830024358331094, "lon": 148.23312324936055, "alt_km": 368.16512451137714, "timestamp": "2025-12-26T14:28:46.398951+00:00", "meta": {"OBJECT_NAME": "STARLINK-35767", "OBJECT_ID": "2025-294AE", "EPOCH": "2025-12-26T06:00:02.999808", "MEAN_MOTION": 15.66581209, "ECCENTRICITY": 0.00012167, "INCLINATION": 43.0002, "RA_OF_ASC_NODE": 99.5584, "ARG_OF_PERICENTER": 266.2691, "MEAN_ANOMALY": 319.0778, "EPHEMERIS_TYPE": 0, "CLASSIFICATION_TYPE": "U", "NORAD_CAT_ID": 67058, "ELEMENT_SET_NO": 999, "REV_AT_EPOCH": 228, "BSTAR": -0.02028437, "MEAN_MOTION_DOT": -0.01931019, "MEAN_MOTION_DDOT": 0}, "tle": {"line1": "1 67058U 25294AE  25360.25003472 -.01931019  00000+0 -20284-1 0  9999", "line2": "2 67058  43.0002  99.5584 0001216 266.2691 319.0778 15.66581209  2289"}}, "geometry": {"type": "Point", "coordinates": [148.23312324936055, 35.830024358331094]}}, {"type": "Feature", "properties": {"norad_id": 67059, "name": "HULIANWANG DIGUI-119", "group": "last-30-days", "lat": 48.88525402158417, "lon": 27.881283834344647, "alt_km": 811.1179778450969, "timestamp": "2025-12-26T14:28:46.398961+00:00", "meta": {"OBJECT_NAME": "HULIANWANG DIGUI-119", "OBJECT_ID": "2025-295A", "EPOCH": "2025-12-26T05:41:22.844544", "MEAN_MOTION": 14.2461737, "ECCENTRICITY": 0.00140116, "INCLINATION": 50.005, "RA_OF_ASC_NODE": 315.3085, "ARG_OF_PERICENTER": 294.0141, "MEAN_ANOMALY": 65.9306, "EPHEMERIS_TYPE": 0, "CLASSIFICATION_TYPE": "U", "NORAD_CAT_ID": 67059, "ELEMENT_SET_NO": 999, "REV_AT_EPOCH": 204, "BSTAR": 8.4513232e-05, "MEAN_MOTION_DOT": 3.8e-07, "MEAN_MOTION_DDOT": 0}, "tle": {"line1": "1 67059U 25295A   25360.23706996  .00000038  00000+0  84513-4 0  9993", "line2": "2 67059  50.0050 315.3085 0014011 294.0141  65.9306 14.24617370  2042"}}, "geometry": {"type": "Point", "coordinates": [27.881283834344647, 48.88525402158417]}}]}